[{"OBJECT_NAME":"STARLINK-31445","OBJECT_ID":"2024-056S","EPOCH":"2026-03-17T00:30:25.806528","MEAN_MOTION":15.2757447,"ECCENTRICITY":4.228e-5,"INCLINATION":43.0006,"RA_OF_ASC_NODE":196.3869,"ARG_OF_PERICENTER":340.6103,"MEAN_ANOMALY":19.4733,"EPHEMERIS_TYPE":0,"CLASSIFICATION_TYPE":"U","NORAD_CAT_ID":59312,"ELEMENT_SET_NO":999,"REV_AT_EPOCH":11219,"BSTAR":5.1852138e-5,"MEAN_MOTION_DOT":1.165e-5,"MEAN_MOTION_DDOT":0},{"OBJECT_NAME":"STARLINK-31495","OBJECT_ID":"2024-056T","EPOCH":"2026-03-16T23:32:08.409696","MEAN_MOTION":15.27573999,"ECCENTRICITY":8.49e-5,"INCLINATION":42.9997,"RA_OF_ASC_NODE":182.2325,"ARG_OF_PERICENTER":271.1484,"MEAN_ANOMALY":88.927,"EPHEMERIS_TYPE":0,"CLASSIFICATION_TYPE":"U","NORAD_CAT_ID":59313,"ELEMENT_SET_NO":999,"REV_AT_EPOCH":11235,"BSTAR":-6.3194749e-5,"MEAN_MOTION_DOT":-2.0e-5,"MEAN_MOTION_DDOT":0},{"OBJECT_NAME":"STARLINK-31477","OBJECT_ID":"2024-056U","EPOCH":"2026-03-16T16:51:28.948032","MEAN_MOTION":15.27570267,"ECCENTRICITY":0.00013838,"INCLINATION":43.0011,"RA_OF_ASC_NODE":183.5901,"ARG_OF_PERICENTER":258.3339,"MEAN_ANOMALY":101.7357,"EPHEMERIS_TYPE":0,"CLASSIFICATION_TYPE":"U","NORAD_CAT_ID":59314,"ELEMENT_SET_NO":999,"REV_AT_EPOCH":11231,"BSTAR":-4.9516826e-5,"MEAN_MOTION_DOT":-1.624e-5,"MEAN_MOTION_DDOT":0},{"OBJECT_NAME":"STARLINK-31446","OBJECT_ID":"2024-056V","EPOCH":"2026-03-16T15:51:04.881024","MEAN_MOTION":15.27580084,"ECCENTRICITY":0.00012268,"INCLINATION":43.0006,"RA_OF_ASC_NODE":191.0611,"ARG_OF_PERICENTER":271.1202,"MEAN_ANOMALY":88.9509,"EPHEMERIS_TYPE":0,"CLASSIFICATION_TYPE":"U","NORAD_CAT_ID":59315,"ELEMENT_SET_NO":999,"REV_AT_EPOCH":11222,"BSTAR":-3.4551233e-5,"MEAN_MOTION_DOT":-1.213e-5,"MEAN_MOTION_DDOT":0},{"OBJECT_NAME":"STARLINK-31479","OBJECT_ID":"2024-056W","EPOCH":"2026-03-16T15:54:17.332704","MEAN_MOTION":15.27585019,"ECCENTRICITY":0.00014001,"INCLINATION":43.0031,"RA_OF_ASC_NODE":195.4008,"ARG_OF_PERICENTER":271.538,"MEAN_ANOMALY":88.5311,"EPHEMERIS_TYPE":0,"CLASSIFICATION_TYPE":"U","NORAD_CAT_ID":59316,"ELEMENT_SET_NO":999,"REV_AT_EPOCH":11217,"BSTAR":-6.1558084e-5,"MEAN_MOTION_DOT":-1.956e-5,"MEAN_MOTION_DDOT":0},{"OBJECT_NAME":"STARLINK-31349","OBJECT_ID":"2024-056X","EPOCH":"2026-03-17T00:04:04.411776","MEAN_MOTION":15.2757245,"ECCENTRICITY":7.358e-5,"INCLINATION":43.0023,"RA_OF_ASC_NODE":189.3279,"ARG_OF_PERICENTER":255.6952,"MEAN_ANOMALY":104.3818,"EPHEMERIS_TYPE":0,"CLASSIFICATION_TYPE":"U","NORAD_CAT_ID":59317,"ELEMENT_SET_NO":999,"REV_AT_EPOCH":11234,"BSTAR":0.00012085281,"MEAN_MOTION_DOT":3.064e-5,"MEAN_MOTION_DDOT":0},{"OBJECT_NAME":"STARLINK-31464","OBJECT_ID":"2024-056Y","EPOCH":"2026-03-16T23:52:56.943264","MEAN_MOTION":15.27591828,"ECCENTRICITY":0.00011907,"INCLINATION":42.9999,"RA_OF_ASC_NODE":189.2712,"ARG_OF_PERICENTER":268.3587,"MEAN_ANOMALY":91.7129,"EPHEMERIS_TYPE":0,"CLASSIFICATION_TYPE":"U","NORAD_CAT_ID":59318,"ELEMENT_SET_NO":999,"REV_AT_EPOCH":11227,"BSTAR":-4.2234392e-5,"MEAN_MOTION_DOT":-1.424e-5,"MEAN_MOTION_DDOT":0},{"OBJECT_NAME":"STARLINK-31402","OBJECT_ID":"2024-057A","EPOCH":"2026-03-16T18:33:14.090400","MEAN_MOTION":15.27572241,"ECCENTRICITY":0.00010606,"INCLINATION":43.0035,"RA_OF_ASC_NODE":99.4645,"ARG_OF_PERICENTER":279.5493,"MEAN_ANOMALY":80.5239,"EPHEMERIS_TYPE":0,"CLASSIFICATION_TYPE":"U","NORAD_CAT_ID":59320,"ELEMENT_SET_NO":999,"REV_AT_EPOCH":11145,"BSTAR":-1.8337597e-5,"MEAN_MOTION_DOT":-7.66e-6,"MEAN_MOTION_DDOT":0},{"OBJECT_NAME":"STARLINK-31578","OBJECT_ID":"2024-057B","EPOCH":"2026-03-16T21:05:21.228288","MEAN_MOTION":15.27593927,"ECCENTRICITY":0.00015662,"INCLINATION":43.0018,"RA_OF_ASC_NODE":146.0294,"ARG_OF_PERICENTER":50.5673,"MEAN_ANOMALY":309.5317,"EPHEMERIS_TYPE":0,"CLASSIFICATION_TYPE":"U","NORAD_CAT_ID":59321,"ELEMENT_SET_NO":999,"REV_AT_EPOCH":11094,"BSTAR":-0.00020201142,"MEAN_MOTION_DOT":-5.819e-5,"MEAN_MOTION_DDOT":0},{"OBJECT_NAME":"STARLINK-31530","OBJECT_ID":"2024-057C","EPOCH":"2026-03-17T06:00:02.000160","MEAN_MOTION":15.42707426,"ECCENTRICITY":0.00133974,"INCLINATION":42.997,"RA_OF_ASC_NODE":141.463,"ARG_OF_PERICENTER":56.6546,"MEAN_ANOMALY":136.4796,"EPHEMERIS_TYPE":0,"CLASSIFICATION_TYPE":"U","NORAD_CAT_ID":59322,"ELEMENT_SET_NO":999,"REV_AT_EPOCH":582,"BSTAR":0.0022985158,"MEAN_MOTION_DOT":0.00104076,"MEAN_MOTION_DDOT":0},{"OBJECT_NAME":"STARLINK-31565","OBJECT_ID":"2024-057D","EPOCH":"2026-03-16T21:39:18.664704","MEAN_MOTION":15.27583254,"ECCENTRICITY":0.00012043,"INCLINATION":43.0009,"RA_OF_ASC_NODE":153.9956,"ARG_OF_PERICENTER":280.2321,"MEAN_ANOMALY":79.8395,"EPHEMERIS_TYPE":0,"CLASSIFICATION_TYPE":"U","NORAD_CAT_ID":59323,"ELEMENT_SET_NO":999,"REV_AT_EPOCH":11085,"BSTAR":-2.6303727e-5,"MEAN_MOTION_DOT":-9.86e-6,"MEAN_MOTION_DDOT":0},{"OBJECT_NAME":"STARLINK-31570","OBJECT_ID":"2024-057E","EPOCH":"2026-03-16T13:11:04.360992","MEAN_MOTION":15.27579662,"ECCENTRICITY":0.00010767,"INCLINATION":42.999,"RA_OF_ASC_NODE":148.7226,"ARG_OF_PERICENTER":276.2249,"MEAN_ANOMALY":83.848,"EPHEMERIS_TYPE":0,"CLASSIFICATION_TYPE":"U","NORAD_CAT_ID":59324,"ELEMENT_SET_NO":999,"REV_AT_EPOCH":11088,"BSTAR":-4.3781843e-5,"MEAN_MOTION_DOT":-1.466e-5,"MEAN_MOTION_DDOT":0},{"OBJECT_NAME":"STARLINK-31611","OBJECT_ID":"2024-057F","EPOCH":"2026-03-16T21:03:42.633792","MEAN_MOTION":15.2757349,"ECCENTRICITY":0.00011395,"INCLINATION":43.0009,"RA_OF_ASC_NODE":146.8872,"ARG_OF_PERICENTER":277.2979,"MEAN_ANOMALY":82.7743,"EPHEMERIS_TYPE":0,"CLASSIFICATION_TYPE":"U","NORAD_CAT_ID":59325,"ELEMENT_SET_NO":999,"REV_AT_EPOCH":11093,"BSTAR":5.0134733e-5,"MEAN_MOTION_DOT":1.118e-5,"MEAN_MOTION_DDOT":0},{"OBJECT_NAME":"STARLINK-31632","OBJECT_ID":"2024-057G","EPOCH":"2026-03-16T15:36:46.552320","MEAN_MOTION":15.27604107,"ECCENTRICITY":0.00019375,"INCLINATION":42.9995,"RA_OF_ASC_NODE":159.0054,"ARG_OF_PERICENTER":240.6171,"MEAN_ANOMALY":119.4487,"EPHEMERIS_TYPE":0,"CLASSIFICATION_TYPE":"U","NORAD_CAT_ID":59326,"ELEMENT_SET_NO":999,"REV_AT_EPOCH":11077,"BSTAR":-1.0756658e-5,"MEAN_MOTION_DOT":-5.59e-6,"MEAN_MOTION_DDOT":0},{"OBJECT_NAME":"STARLINK-31599","OBJECT_ID":"2024-057H","EPOCH":"2026-03-16T21:29:22.636896","MEAN_MOTION":15.27637288,"ECCENTRICITY":0.00022076,"INCLINATION":43.0029,"RA_OF_ASC_NODE":146.1649,"ARG_OF_PERICENTER":280.5707,"MEAN_ANOMALY":79.4896,"EPHEMERIS_TYPE":0,"CLASSIFICATION_TYPE":"U","NORAD_CAT_ID":59327,"ELEMENT_SET_NO":999,"REV_AT_EPOCH":11094,"BSTAR":-0.00044113313,"MEAN_MOTION_DOT":-0.00012403,"MEAN_MOTION_DDOT":0},{"OBJECT_NAME":"STARLINK-31614","OBJECT_ID":"2024-057J","EPOCH":"2026-03-16T22:04:35.394240","MEAN_MOTION":15.2750069,"ECCENTRICITY":7.639e-5,"INCLINATION":43.0052,"RA_OF_ASC_NODE":146.3441,"ARG_OF_PERICENTER":228.022,"MEAN_ANOMALY":132.0567,"EPHEMERIS_TYPE":0,"CLASSIFICATION_TYPE":"U","NORAD_CAT_ID":59328,"ELEMENT_SET_NO":999,"REV_AT_EPOCH":11094,"BSTAR":0.00054785037,"MEAN_MOTION_DOT":0.00014807,"MEAN_MOTION_DDOT":0},{"OBJECT_NAME":"STARLINK-31493","OBJECT_ID":"2024-057K","EPOCH":"2026-03-16T21:40:29.765856","MEAN_MOTION":15.27575568,"ECCENTRICITY":8.322e-5,"INCLINATION":43.0011,"RA_OF_ASC_NODE":146.2248,"ARG_OF_PERICENTER":261.1289,"MEAN_ANOMALY":98.9469,"EPHEMERIS_TYPE":0,"CLASSIFICATION_TYPE":"U","NORAD_CAT_ID":59329,"ELEMENT_SET_NO":999,"REV_AT_EPOCH":11094,"BSTAR":5.9178943e-5,"MEAN_MOTION_DOT":1.367e-5,"MEAN_MOTION_DDOT":0},{"OBJECT_NAME":"STARLINK-31634","OBJECT_ID":"2024-057L","EPOCH":"2026-03-16T12:52:34.783680","MEAN_MOTION":15.27576233,"ECCENTRICITY":0.00014064,"INCLINATION":43.0022,"RA_OF_ASC_NODE":148.6262,"ARG_OF_PERICENTER":265.317,"MEAN_ANOMALY":94.7521,"EPHEMERIS_TYPE":0,"CLASSIFICATION_TYPE":"U","NORAD_CAT_ID":59330,"ELEMENT_SET_NO":999,"REV_AT_EPOCH":11088,"BSTAR":-7.5842024e-5,"MEAN_MOTION_DOT":-2.348e-5,"MEAN_MOTION_DDOT":0},{"OBJECT_NAME":"STARLINK-31633","OBJECT_ID":"2024-057M","EPOCH":"2026-03-16T12:48:52.399584","MEAN_MOTION":15.27577266,"ECCENTRICITY":0.00011846,"INCLINATION":43.0021,"RA_OF_ASC_NODE":148.6057,"ARG_OF_PERICENTER":282.1594,"MEAN_ANOMALY":77.9125,"EPHEMERIS_TYPE":0,"CLASSIFICATION_TYPE":"U","NORAD_CAT_ID":59331,"ELEMENT_SET_NO":999,"REV_AT_EPOCH":11088,"BSTAR":-5.4468549e-5,"MEAN_MOTION_DOT":-1.76e-5,"MEAN_MOTION_DDOT":0},{"OBJECT_NAME":"STARLINK-31594","OBJECT_ID":"2024-057N","EPOCH":"2026-03-16T14:08:12.172128","MEAN_MOTION":15.2756503,"ECCENTRICITY":8.071e-5,"INCLINATION":42.9985,"RA_OF_ASC_NODE":159.4023,"ARG_OF_PERICENTER":249.4789,"MEAN_ANOMALY":110.5976,"EPHEMERIS_TYPE":0,"CLASSIFICATION_TYPE":"U","NORAD_CAT_ID":59332,"ELEMENT_SET_NO":999,"REV_AT_EPOCH":11076,"BSTAR":7.1007815e-5,"MEAN_MOTION_DOT":1.692e-5,"MEAN_MOTION_DDOT":0},{"OBJECT_NAME":"STARLINK-31572","OBJECT_ID":"2024-057P","EPOCH":"2026-03-16T22:02:40.377696","MEAN_MOTION":15.27578529,"ECCENTRICITY":4.759e-5,"INCLINATION":43.0027,"RA_OF_ASC_NODE":157.5763,"ARG_OF_PERICENTER":322.8244,"MEAN_ANOMALY":37.2574,"EPHEMERIS_TYPE":0,"CLASSIFICATION_TYPE":"U","NORAD_CAT_ID":59333,"ELEMENT_SET_NO":999,"REV_AT_EPOCH":11081,"BSTAR":3.0575008e-5,"MEAN_MOTION_DOT":5.8e-6,"MEAN_MOTION_DDOT":0},{"OBJECT_NAME":"STARLINK-31573","OBJECT_ID":"2024-057Q","EPOCH":"2026-03-16T21:07:11.440128","MEAN_MOTION":15.27578337,"ECCENTRICITY":6.85e-5,"INCLINATION":43.0014,"RA_OF_ASC_NODE":146.0337,"ARG_OF_PERICENTER":308.2088,"MEAN_ANOMALY":51.8702,"EPHEMERIS_TYPE":0,"CLASSIFICATION_TYPE":"U","NORAD_CAT_ID":59334,"ELEMENT_SET_NO":999,"REV_AT_EPOCH":11094,"BSTAR":2.2468221e-5,"MEAN_MOTION_DOT":3.56e-6,"MEAN_MOTION_DDOT":0},{"OBJECT_NAME":"STARLINK-31588","OBJECT_ID":"2024-057R","EPOCH":"2026-03-16T21:16:27.875136","MEAN_MOTION":15.2756664,"ECCENTRICITY":7.412e-5,"INCLINATION":43.0025,"RA_OF_ASC_NODE":146.0896,"ARG_OF_PERICENTER":298.0964,"MEAN_ANOMALY":61.9813,"EPHEMERIS_TYPE":0,"CLASSIFICATION_TYPE":"U","NORAD_CAT_ID":59335,"ELEMENT_SET_NO":999,"REV_AT_EPOCH":11094,"BSTAR":-4.3477416e-5,"MEAN_MOTION_DOT":-1.458e-5,"MEAN_MOTION_DDOT":0}]
